{
  "type": "FeatureCollection",
  "features": [
    {
      "type": "Feature",
      "properties": {
        "norad_id": 34765,
        "name": "IRIDIUM 33 DEB",
        "group": "iridium-33-debris",
        "lat": 31.172500396785697,
        "lon": 36.698166273108086,
        "alt_km": 765.7389886938099,
        "timestamp": "2025-12-08T17:43:05.321860+00:00",
        "meta_object_name": "IRIDIUM 33 DEB",
        "meta_object_id": "1997-051LJ",
        "meta_epoch": "2025-12-08T02:42:04.212864",
        "meta_mean_motion": 14.40446834,
        "meta_eccentricity": 0.00149899,
        "meta_inclination": 86.3396,
        "meta_ra_of_asc_node": 34.7471,
        "meta_arg_of_pericenter": 227.7302,
        "meta_mean_anomaly": 160.9531,
        "meta_ephemeris_type": 0,
        "meta_classification_type": "U",
        "meta_norad_cat_id": 34765,
        "meta_element_set_no": 999,
        "meta_rev_at_epoch": 87547,
        "meta_bstar": 0.00060973087,
        "meta_mean_motion_dot": 1.958e-05,
        "meta_mean_motion_ddot": 0,
        "tle_line1": "1 34765U 97051LJ  25342.11254876  .00001958  00000+0  60973-3 0  9997",
        "tle_line2": "2 34765  86.3396  34.7471 0014989 227.7302 160.9531 14.40446834875476"
      },
      "geometry": {
        "type": "Point",
        "coordinates": [
          36.698166273108086,
          31.172500396785697
        ]
      }
    },
    {
      "type": "Feature",
      "properties": {
        "norad_id": 34833,
        "name": "IRIDIUM 33 DEB",
        "group": "iridium-33-debris",
        "lat": -34.5403796504562,
        "lon": 50.23052351061281,
        "alt_km": 737.0200641608926,
        "timestamp": "2025-12-08T17:43:05.321878+00:00",
        "meta_object_name": "IRIDIUM 33 DEB",
        "meta_object_id": "1997-051MH",
        "meta_epoch": "2025-12-08T04:53:52.275264",
        "meta_mean_motion": 14.52334533,
        "meta_eccentricity": 0.00217756,
        "meta_inclination": 86.3933,
        "meta_ra_of_asc_node": 52.9489,
        "meta_arg_of_pericenter": 112.4675,
        "meta_mean_anomaly": 302.0491,
        "meta_ephemeris_type": 0,
        "meta_classification_type": "U",
        "meta_norad_cat_id": 34833,
        "meta_element_set_no": 999,
        "meta_rev_at_epoch": 87649,
        "meta_bstar": 0.0010790746,
        "meta_mean_motion_dot": 4.422e-05,
        "meta_mean_motion_ddot": 0,
        "tle_line1": "1 34833U 97051MH  25342.20407726  .00004422  00000+0  10791-2 0  9998",
        "tle_line2": "2 34833  86.3933  52.9489 0021775 112.4675 302.0491 14.52334533876496"
      },
      "geometry": {
        "type": "Point",
        "coordinates": [
          50.23052351061281,
          -34.5403796504562
        ]
      }
    },
    {
      "type": "Feature",
      "properties": {
        "norad_id": 34870,
        "name": "IRIDIUM 33 DEB",
        "group": "iridium-33-debris",
        "lat": -47.4324944852702,
        "lon": -48.113481195377915,
        "alt_km": 652.4105857767563,
        "timestamp": "2025-12-08T17:43:05.321899+00:00",
        "meta_object_name": "IRIDIUM 33 DEB",
        "meta_object_id": "1997-051MQ",
        "meta_epoch": "2025-12-07T16:41:29.147136",
        "meta_mean_motion": 14.76272854,
        "meta_eccentricity": 0.00154972,
        "meta_inclination": 86.3098,
        "meta_ra_of_asc_node": 316.3932,
        "meta_arg_of_pericenter": 201.8058,
        "meta_mean_anomaly": 332.1989,
        "meta_ephemeris_type": 0,
        "meta_classification_type": "U",
        "meta_norad_cat_id": 34870,
        "meta_element_set_no": 999,
        "meta_rev_at_epoch": 88836,
        "meta_bstar": 0.0021061979,
        "meta_mean_motion_dot": 0.00014658,
        "meta_mean_motion_ddot": 0,
        "tle_line1": "1 34870U 97051MQ  25341.69547624  .00014658  00000+0  21062-2 0  9998",
        "tle_line2": "2 34870  86.3098 316.3932 0015497 201.8058 332.1989 14.76272854888369"
      },
      "geometry": {
        "type": "Point",
        "coordinates": [
          -48.113481195377915,
          -47.4324944852702
        ]
      }
    },
    {
      "type": "Feature",
      "properties": {
        "norad_id": 34896,
        "name": "IRIDIUM 33 DEB",
        "group": "iridium-33-debris",
        "lat": -60.54341536906749,
        "lon": -38.04696190694619,
        "alt_km": 674.5597409240045,
        "timestamp": "2025-12-08T17:43:05.321914+00:00",
        "meta_object_name": "IRIDIUM 33 DEB",
        "meta_object_id": "1997-051MY",
        "meta_epoch": "2025-12-08T06:47:45.155328",
        "meta_mean_motion": 14.66206819,
        "meta_eccentricity": 0.00239488,
        "meta_inclination": 86.3293,
        "meta_ra_of_asc_node": 328.6838,
        "meta_arg_of_pericenter": 231.0822,
        "meta_mean_anomaly": 187.3834,
        "meta_ephemeris_type": 0,
        "meta_classification_type": "U",
        "meta_norad_cat_id": 34896,
        "meta_element_set_no": 999,
        "meta_rev_at_epoch": 87554,
        "meta_bstar": 0.001338628,
        "meta_mean_motion_dot": 7.421e-05,
        "meta_mean_motion_ddot": 0,
        "tle_line1": "1 34896U 97051MY  25342.28316152  .00007421  00000+0  13386-2 0  9992",
        "tle_line2": "2 34896  86.3293 328.6838 0023948 231.0822 187.3834 14.66206819875541"
      },
      "geometry": {
        "type": "Point",
        "coordinates": [
          -38.04696190694619,
          -60.54341536906749
        ]
      }
    },
    {
      "type": "Feature",
      "properties": {
        "norad_id": 34926,
        "name": "IRIDIUM 33 DEB",
        "group": "iridium-33-debris",
        "lat": -17.133504825508155,
        "lon": -168.67694565872677,
        "alt_km": 734.8260562621917,
        "timestamp": "2025-12-08T17:43:05.321926+00:00",
        "meta_object_name": "IRIDIUM 33 DEB",
        "meta_object_id": "1997-051NF",
        "meta_epoch": "2025-12-08T02:11:30.683040",
        "meta_mean_motion": 14.54084217,
        "meta_eccentricity": 0.00760537,
        "meta_inclination": 86.1317,
        "meta_ra_of_asc_node": 10.4276,
        "meta_arg_of_pericenter": 308.6833,
        "meta_mean_anomaly": 104.8463,
        "meta_ephemeris_type": 0,
        "meta_classification_type": "U",
        "meta_norad_cat_id": 34926,
        "meta_element_set_no": 999,
        "meta_rev_at_epoch": 86389,
        "meta_bstar": 0.0064312828,
        "meta_mean_motion_dot": 0.00028322,
        "meta_mean_motion_ddot": 0,
        "tle_line1": "1 34926U 97051NF  25342.09132735  .00028322  00000+0  64313-2 0  9997",
        "tle_line2": "2 34926  86.1317  10.4276 0076053 308.6833 104.8463 14.54084217863890"
      },
      "geometry": {
        "type": "Point",
        "coordinates": [
          -168.67694565872677,
          -17.133504825508155
        ]
      }
    },
    {
      "type": "Feature",
      "properties": {
        "norad_id": 34985,
        "name": "IRIDIUM 33 DEB",
        "group": "iridium-33-debris",
        "lat": 40.63076589378659,
        "lon": -124.53636611012413,
        "alt_km": 749.9280887241048,
        "timestamp": "2025-12-08T17:43:05.321936+00:00",
        "meta_object_name": "IRIDIUM 33 DEB",
        "meta_object_id": "1997-051NR",
        "meta_epoch": "2025-12-08T05:40:04.658592",
        "meta_mean_motion": 14.41979756,
        "meta_eccentricity": 0.00202828,
        "meta_inclination": 86.3695,
        "meta_ra_of_asc_node": 58.8006,
        "meta_arg_of_pericenter": 235.2895,
        "meta_mean_anomaly": 179.3648,
        "meta_ephemeris_type": 0,
        "meta_classification_type": "U",
        "meta_norad_cat_id": 34985,
        "meta_element_set_no": 999,
        "meta_rev_at_epoch": 87110,
        "meta_bstar": 0.0010950657,
        "meta_mean_motion_dot": 3.617e-05,
        "meta_mean_motion_ddot": 0,
        "tle_line1": "1 34985U 97051NR  25342.23616503  .00003617  00000+0  10951-2 0  9997",
        "tle_line2": "2 34985  86.3695  58.8006 0020282 235.2895 179.3648 14.41979756871101"
      },
      "geometry": {
        "type": "Point",
        "coordinates": [
          -124.53636611012413,
          40.63076589378659
        ]
      }
    },
    {
      "type": "Feature",
      "properties": {
        "norad_id": 35051,
        "name": "IRIDIUM 33 DEB",
        "group": "iridium-33-debris",
        "lat": -8.398893071397582,
        "lon": 10.062484842470948,
        "alt_km": 740.0356753097394,
        "timestamp": "2025-12-08T17:43:05.321947+00:00",
        "meta_object_name": "IRIDIUM 33 DEB",
        "meta_object_id": "1997-051NX",
        "meta_epoch": "2025-12-05T08:27:53.565120",
        "meta_mean_motion": 14.47546386,
        "meta_eccentricity": 0.00106363,
        "meta_inclination": 86.3242,
        "meta_ra_of_asc_node": 12.0813,
        "meta_arg_of_pericenter": 111.2483,
        "meta_mean_anomaly": 248.9857,
        "meta_ephemeris_type": 0,
        "meta_classification_type": "U",
        "meta_norad_cat_id": 35051,
        "meta_element_set_no": 999,
        "meta_rev_at_epoch": 86889,
        "meta_bstar": 0.0012192117,
        "meta_mean_motion_dot": 4.506e-05,
        "meta_mean_motion_ddot": 0,
        "tle_line1": "1 35051U 97051NX  25339.35270330  .00004506  00000+0  12192-2 0  9992",
        "tle_line2": "2 35051  86.3242  12.0813 0010636 111.2483 248.9857 14.47546386868892"
      },
      "geometry": {
        "type": "Point",
        "coordinates": [
          10.062484842470948,
          -8.398893071397582
        ]
      }
    }
  ]
}